ONEWEB-0549             
1 56051U 23043F   24342.56939729  .00000013  00000+0 -28300-6 0  9997
2 56051  87.9298 354.8733 0001347  88.4156 271.7133 13.21825541 84695
ONEWEB-0550             
1 56052U 23043G   24342.55678296  .00000029  00000+0  39839-4 0  9999
2 56052  87.9292 354.8772 0001919  88.4767 271.6587 13.21827466 84696
ONEWEB-0551             
1 56053U 23043H   24342.56771442 -.00000124  00000+0 -36244-3 0  9992
2 56053  87.9077  10.0508 0001580  89.4834 270.6477 13.15548870 83212
ONEWEB-0552             
1 56054U 23043J   24342.55047116  .00000045  00000+0  78093-4 0  9995
2 56054  87.9293 354.8879 0001782  81.5062 278.6273 13.21827628 84696
ONEWEB-0553             
1 56055U 23043K   24342.50418743 -.00000234  00000+0 -64500-3 0  9998
2 56055  87.9078 339.6869 0001830  99.7466 260.3872 13.16593220 85721
ONEWEB-0554             
1 56056U 23043L   24342.56754738 -.00000003  00000+0 -41105-4 0  9993
2 56056  87.9083 339.6999 0002256  76.1700 283.9682 13.16594520 85718
ONEWEB-0555             
1 56057U 23043M   24342.52953341  .00000104  00000+0  23955-3 0  9993
2 56057  87.9079 339.6758 0002296 103.8549 256.2837 13.16591471 85717
ONEWEB-0557             
1 56058U 23043N   24342.54379641  .00000072  00000+0  15364-3 0  9990
2 56058  87.9079 339.6975 0002737  97.3809 262.7633 13.16593524 85712
